[{"OBJECT_NAME":"STARLINK-30347","OBJECT_ID":"2023-129B","EPOCH":"2026-03-09T22:00:01.999584","MEAN_MOTION":15.25398532,"ECCENTRICITY":0.00016166,"INCLINATION":43.0002,"RA_OF_ASC_NODE":105.1096,"ARG_OF_PERICENTER":266.1947,"MEAN_ANOMALY":44.1744,"EPHEMERIS_TYPE":0,"CLASSIFICATION_TYPE":"U","NORAD_CAT_ID":57699,"ELEMENT_SET_NO":999,"REV_AT_EPOCH":573,"BSTAR":0.03652228,"MEAN_MOTION_DOT":0.01025389,"MEAN_MOTION_DDOT":0},{"OBJECT_NAME":"KUIPER-00159","OBJECT_ID":"2026-030A","EPOCH":"2026-03-09T15:10:26.374944","MEAN_MOTION":15.35788737,"ECCENTRICITY":0.0005012,"INCLINATION":51.8841,"RA_OF_ASC_NODE":219.4438,"ARG_OF_PERICENTER":44.9181,"MEAN_ANOMALY":315.221,"EPHEMERIS_TYPE":0,"CLASSIFICATION_TYPE":"U","NORAD_CAT_ID":67764,"ELEMENT_SET_NO":999,"REV_AT_EPOCH":508,"BSTAR":0.00076096,"MEAN_MOTION_DOT":0.0002662,"MEAN_MOTION_DDOT":0}]
